ZHUHAI-1 01 (CAS-4A)    
1 42761U 17034D   23159.44995127  .00006754  00000+0  34384-3 0  9992
2 42761  43.0130 162.7852 0010617  41.9229 318.2430 15.17286047330307
MAX VALIER SAT          
1 42778U 17036P   23159.06172574  .00024657  00000+0  65022-3 0  9998
2 42778  97.1552 194.1241 0010358 128.6146 231.6029 15.38428093331324
RADFXSAT (FOX-1B)       
1 43017U 17073E   23159.16366188  .00008168  00000+0  56737-3 0  9995
2 43017  97.6313  43.8590 0235517  99.0352 263.7596 14.85951572299843
FOX-1D (AO-92)          
1 43137U 18004AC  23159.45954257  .00035060  00000+0  73132-3 0  9994
2 43137  97.3282 238.5605 0006741 161.9859 198.1630 15.45451416300969
DIWATA-2B               
1 43678U 18084H   23159.61250531  .00001875  00000+0  18422-3 0  9992
2 43678  98.0220 303.4098 0009502 182.0067 178.1116 14.93400467250985
ES'HAIL 2               
1 43700U 18090A   23159.33504192  .00000144  00000+0  00000+0 0  9996
2 43700   0.0171  13.2974 0001827  95.6352 293.9287  1.00271357 16596
FOX-1CLIFF (AO-95)      
1 43770U 18099N   23159.15186941  .00004614  00000+0  37747-3 0  9998
2 43770  97.5712 220.9362 0012681 162.5853 197.5808 14.99749843246251
ITASAT 1                
1 43786U 18099AE  23159.41906797  .00003861  00000+0  31911-3 0  9993
2 43786  97.5755 222.2289 0013580 149.3346 210.8674 14.99442547246337
JY1SAT (JO-97)          
1 43803U 18099AX  23159.11452962  .00006201  00000+0  49252-3 0  9998
2 43803  97.5691 221.9149 0014370 121.3761 238.8871 15.00737198246337
UWE-4                   
1 43880U 18111E   23159.23089659  .00005941  00000+0  45545-3 0  9991
2 43880  97.6310  64.5513 0017560 200.8728 159.1782 15.02078286243024
NEXUS (FO-99)           
1 43937U 19003F   23159.01200009  .00050957  00000+0  84439-3 0  9997
2 43937  97.0856 186.3388 0009190 310.3916  49.6534 15.51957199244623
JAISAT-1                
1 44419U 19038F   23159.46293093  .00022035  00000+0  76059-3 0  9990
2 44419  97.6735 140.8964 0013260 342.1032  17.9738 15.29897033217204
DUCHIFAT-3              
1 44854U 19089C   23159.32354319  .00007290  00000+0  49350-3 0  9993
2 44854  36.9608 144.2540 0010408 246.1217 113.8436 15.06105937191560
CAS-6 (TIANQIN 1)       
1 44881U 19093C   23159.52258955  .00001079  00000+0  14065-3 0  9993
2 44881  97.8618 238.1210 0016160 105.3882 254.9118 14.82518341187513
RS-44 & BREEZE-KM R/B   
1 44909U 19096E   23159.54421025  .00000011  00000+0  50366-6 0  9991
2 44909  82.5218 353.6902 0216920 206.9389 152.0319 12.79720981161059
BY70-2                  
1 45857U 20042B   23159.54890764  .00017294  00000+0  17881-2 0  9999
2 45857  97.9247 239.4191 0008534  46.0697 314.1223 14.90144471158252
SALSAT                  
1 46495U 20068K   23159.36023772  .00003869  00000+0  25740-3 0  9990
2 46495  97.7696 107.2707 0016577 144.8363 215.3962 15.07651702147748
RADFXSAT-2 (AO-109)     
1 47311U 21002C   23159.21137094  .00025563  00000+0  67041-3 0  9999
2 47311  60.6813  93.0352 0013599 172.2655 187.8652 15.38525232132907
UVSQ-SAT                
1 47438U 21006AB  23159.10309867  .00015411  00000+0  63499-3 0  9994
2 47438  97.3841 216.3422 0011512 113.5760 246.6688 15.24122345131265
DIY-1 (ARDUIQUBE)       
1 47963U 21022AH  23159.27632436  .00233424  00000+0  29872-2 0  9996
2 47963  97.4954  67.4156 0002951  64.6830 295.4731 15.58409232121208
XW-3 (CAS-9)            
1 50466U 21131B   23159.47766003  .00000603  00000+0  21006-3 0  9992
2 50466  98.5519 241.0495 0004886 152.6956 207.4489 14.38911102 76103
TEVEL-3                 
1 50988U 22002E   23159.45183249  .00019026  00000+0  76917-3 0  9992
2 50988  97.4330 226.4785 0006401 256.8100 103.2424 15.24761178 77434
TEVEL-8                 
1 50989U 22002F   23159.53583196  .00018697  00000+0  75737-3 0  9999
2 50989  97.4345 226.6201 0006489 255.5405 104.5113 15.24696487 77446
TEVEL-5                 
1 50998U 22002Q   23159.53231654  .00019775  00000+0  77993-3 0  9992
2 50998  97.4323 226.9316 0007715 251.0615 108.9787 15.25572982 77471
TEVEL-6                 
1 50999U 22002R   23159.46524888  .00019068  00000+0  75230-3 0  9996
2 50999  97.4321 226.8598 0007718 250.9980 109.0422 15.25569416 77462
TEVEL-1                 
1 51013U 22002AF  23159.46137217  .00018257  00000+0  73930-3 0  9994
2 51013  97.4323 226.4322 0006349 256.3926 103.6604 15.24714054 77430
TEVEL-7                 
1 51062U 22002CG  23159.53692891  .00018974  00000+0  76814-3 0  9990
2 51062  97.4340 226.5947 0006489 255.0217 105.0303 15.24713769 77446
TEVEL-4                 
1 51063U 22002CH  23159.54271674  .00018268  00000+0  74088-3 0  9991
2 51063  97.4340 226.5846 0006477 255.0162 105.0358 15.24662254 77443
TEVEL-2                 
1 51069U 22002CP  23159.45367424  .00018755  00000+0  75826-3 0  9998
2 51069  97.4327 226.4521 0006405 256.4974 103.5550 15.24762245 77437
GREENCUBE               
1 53106U 22080B   23156.84588440 -.00000003  00000+0  00000+0 0  9997
2 53106  70.1624 323.6621 0008403 187.6285 172.4247  6.42557080 21021
RS29S (SXC3-2110 CYCLO*)
1 53373U 22096D   23159.55392252  .00030513  00000+0  80419-3 0  9999
2 53373  97.4139  65.7531 0002838 114.0153 246.1389 15.38456833 46367
RS32S (SXC3-212 MONITO*)
1 53374U 22096E   23159.58342478  .00027712  00000+0  75044-3 0  9993
2 53374  97.4118  65.6748 0003259 119.5634 240.5936 15.37636445 46360
RS34S (SXC3-218 KUZBAS*)
1 53375U 22096F   23159.59378143  .00023785  00000+0  68470-3 0  9994
2 53375  97.4143  65.3987 0003158 116.3864 243.7704 15.35760295 46344
RS23S (SXC3-21 UTMN)    
1 53376U 22096G   23159.55407307  .00024405  00000+0  69097-3 0  9992
2 53376  97.4140  65.4451 0002919 113.8367 246.3183 15.36276316 46340
RS28S (SXC3-214 MIET-A*)
1 53377U 22096H   23159.53609664  .00020284  00000+0  59190-3 0  9995
2 53377  97.4151  65.3300 0003070 116.7849 243.3709 15.35366975 46331
RS26S (KAI-1)           
1 53378U 22096J   23159.56698205  .00018134  00000+0  55337-3 0  9998
2 53378  97.4165  65.1505 0003013 113.9785 246.1773 15.33975654 46326
RS19S (SXC3-219 ISOI)   
1 53381U 22096M   23159.55355183  .00022535  00000+0  64034-3 0  9990
2 53381  97.4139  65.5938 0005646  94.0894 266.0996 15.36167739 46350
RS21S (CUBESX-HSE-2)    
1 53383U 22096P   23159.59389657  .00023812  00000+0  66729-3 0  9991
2 53383  97.4143  65.7034 0006161  94.1535 266.0414 15.36588676 46365
RS30S (SXC3-217 SIREN)  
1 53384U 22096Q   23159.55208725  .00020264  00000+0  59563-3 0  9990
2 53384  97.4156  65.4665 0006082  91.3245 268.8695 15.35125249 46347
RS20S (GEOSCAN-EDELVEIS)
1 53385U 22096R   23159.59409019  .00032906  00000+0  82390-3 0  9994
2 53385  97.4133  66.2920 0006426  92.7619 267.4363 15.39998328 46435
RS33S (SXC3-215 VIZARD) 
1 53386U 22096S   23159.59371441  .00041180  00000+0  91629-3 0  9991
2 53386  97.4129  66.8989 0007078  92.5303 267.6755 15.43504025 46466
CAS-5A (FO-118)         
1 54684U 22167C   23159.54997470  .00010114  00000+0  56190-3 0  9990
2 54684  97.5619 297.1883 0013281  10.1510 349.9987 15.13833900 27378
